PROBA-1                 
1 26958U 01049B   26115.82814278  .00002368  00000+0  15650-3 0  9997
2 26958  97.9622 122.5367 0054052 300.8739  58.7178 15.07292716335736
CUTE-1 (CO-55)          
1 27844U 03031E   26114.99932729  .00000245  00000+0  12496-3 0  9991
2 27844  98.6757 124.2245 0009205 347.5450  12.5500 14.24301171184104
CUBESAT XI-IV (CO-57)   
1 27848U 03031J   26115.45318900  .00000236  00000+0  12291-3 0  9999
2 27848  98.6791 124.4281 0009461   4.9021 355.2248 14.23591430183877
APRIZESAT 4             
1 35684U 09041D   26115.72634659  .00000758  00000+0  96939-4 0  9996
2 35684  98.1424 190.0017 0044421 130.7481 229.7602 14.83797080903583
APRIZESAT 3             
1 35686U 09041F   26115.39789321  .00001064  00000+0  97320-4 0  9994
2 35686  98.1994 266.1202 0060838 240.9247 118.5872 14.96056044908482
PROBA-2                 
1 36037U 09059B   26115.76434153  .00000171  00000+0  50301-4 0  9991
2 36037  98.2451 299.8446 0014570  83.6741 276.6115 14.54839118873907
APRIZESAT 5             
1 37792U 11044E   26115.78187304  .00000735  00000+0  10021-3 0  9992
2 37792  98.2435  47.3492 0052451 170.0363 190.1902 14.80968305791033
APRIZESAT 6             
1 37793U 11044F   26115.70781365  .00000586  00000+0  90313-4 0  9999
2 37793  98.2390  25.1312 0041834 253.4905 170.0029 14.76842626789407
PROBA-V                 
1 39159U 13021A   26115.82708120  .00000084  00000+0  55117-4 0  9991
2 39159  98.3560  97.0280 0003033 293.9562  66.1300 14.23585468673661
APRIZESAT 7             
1 39416U 13066A   26115.82542281  .00001440  00000+0  14799-3 0  9997
2 39416  97.7667  69.8157 0036661  27.1720 333.1407 14.91431282673422
APRIZESAT 8             
1 39425U 13066K   26115.81026667  .00000952  00000+0  10889-3 0  9994
2 39425  97.8182  64.0265 0047519  97.9892 262.6720 14.87534638671887
BUGSAT-1 (TITA)         
1 40014U 14033E   26115.80274969  .00005132  00000+0  27582-3 0  9997
2 40014  98.0396 205.3170 0028230   2.4975 357.6391 15.15046786647909
SAUDISAT 4              
1 40016U 14033G   26115.83950340  .00000765  00000+0  10774-3 0  9998
2 40016  97.7510 263.8078 0043579 242.8791 116.7974 14.79464941638334
APRIZESAT 9             
1 40018U 14033J   26115.80790406  .00000538  00000+0  86519-4 0  9991
2 40018  97.8979 250.3108 0066362   9.9409 350.3095 14.74154326635845
APRIZESAT 10            
1 40019U 14033K   26115.81306626  .00000514  00000+0  88190-4 0  9991
2 40019  97.9569 243.9661 0080210  81.2716 279.7565 14.70832944634554
TECHDEMOSAT-1 (TDS-1)   
1 40076U 14037H   26115.84138745  .00010914  00000+0  63123-3 0  9999
2 40076  98.3812 102.9079 0008115  87.0136 273.2021 15.12446050640317
TECHNOSAT               
1 42829U 17042E   26115.85009525  .00004171  00000+0  30020-3 0  9998
2 42829  97.4231 275.5291 0016426 272.5299  87.4047 15.04631342478838
FLYING LAPTOP           
1 42831U 17042G   26115.85306230  .00002870  00000+0  22978-3 0  9991
2 42831  97.4455 273.4871 0018205 304.0734  55.8762 15.00808344478604
HAWK-A                  
1 43765U 18099H   26115.70022157  .00007697  00000+0  31515-3 0  9997
2 43765  97.3965 168.6348 0037068 109.8643 250.6595 15.23942854405102
HAWK-B                  
1 43794U 18099AN  26115.65989216  .00006507  00000+0  28213-3 0  9991
2 43794  97.4013 168.1180 0033981 126.5669 233.8703 15.22174947405048
HAWK-C                  
1 43799U 18099AT  26115.66219361  .00008872  00000+0  32604-3 0  9990
2 43799  97.3942 169.2570 0042940 111.0387 249.5452 15.27257797405897
SALSAT                  
1 46495U 20068K   26115.73859803  .00008478  00000+0  30336-3 0  9996
2 46495  97.8866 115.6436 0011520 121.8273 238.4089 15.29000493307347
HAWK-2C                 
1 47502U 21006CT  26115.65242948  .00006460  00000+0  19847-3 0  9999
2 47502  97.2332 161.0225 0007807  42.4509 317.7336 15.34014927291445
HAWK-2A                 
1 47505U 21006CW  26115.65538821  .00006479  00000+0  19900-3 0  9990
2 47505  97.2375 161.6722 0007497  46.4014 313.7850 15.34027267291441
HAWK-2B                 
1 47508U 21006CZ  26115.65246806  .00007351  00000+0  22540-3 0  9996
2 47508  97.2247 160.0876 0007959  43.5958 316.5913 15.34029930291443
HAWK-3B                 
1 48931U 21059BE  26115.52654821  .00053561  00000+0  53699-3 0  9994
2 48931  97.6712 307.4247 0005975 156.6043 203.5489 15.65350301269600
HAWK-3C                 
1 48948U 21059BX  26115.59013786  .00043782  00000+0  43962-3 0  9994
2 48948  97.6840 313.0850 0006439 154.1588 205.9994 15.65350352269610
HAWK-3A                 
1 48957U 21059CG  26115.52609127  .00046182  00000+0  46351-3 0  9999
2 48957  97.6785 310.2635 0006115 155.4342 204.7209 15.65353655269605
HAWK-5C                 
1 52754U 22057Y   26115.70131162  .00018892  00000+0  34498-3 0  9993
2 52754  97.6525 272.0928 0003701 248.0141 112.0716 15.49458206218216
HAWK-5B                 
1 52756U 22057AA  26115.70118644  .00020147  00000+0  36766-3 0  9991
2 52756  97.6528 270.4356 0003882 242.7477 117.3378 15.49460655218214
HAWK-5A                 
1 52757U 22057AB  26115.37803253  .00021024  00000+0  38371-3 0  9991
2 52757  97.6525 270.9264 0004063 246.6977 113.3845 15.49448052218161
HAWK-6B                 
1 55324U 23011A   26115.77937903  .00005790  00000+0  25315-3 0  9995
2 55324  40.4993 297.6380 0002828 354.1039   5.9736 15.22446980179851
HAWK-6C                 
1 55326U 23011C   26115.84434809  .00005828  00000+0  25474-3 0  9990
2 55326  40.4983 294.1038 0003438 342.1905  17.8784 15.22450942179871
HAWK-6A                 
1 55327U 23011D   26115.84438109  .00005827  00000+0  25471-3 0  9994
2 55327  40.4992 295.7227 0003166 338.8536  21.2142 15.22449836179876
HAWK-7A                 
1 56191U 23054P   26115.68870259  .00005696  00000+0  21900-3 0  9996
2 56191  97.2766   4.3630 0002115 182.0167 178.1064 15.26793077169012
HAWK-7B                 
1 56193U 23054R   26115.68863694  .00005790  00000+0  22258-3 0  9995
2 56193  97.2795   2.6079 0001257 175.0506 185.0746 15.26793457169015
HAWK-7C                 
1 56200U 23054Y   26115.68853094  .00005685  00000+0  21860-3 0  9998
2 56200  97.2770   3.3931 0001795 168.8879 191.2400 15.26794294169018
